{
  "links" : {
    "next" : "https://api.nasa.gov/neo/rest/v1/feed?start_date=2005-06-23&end_date=2005-06-23&detailed=true&api_key=t0TVs3DtDT2H8Oy2Zy8m2eVrNsAVKAexjcZXUckd",
    "prev" : "https://api.nasa.gov/neo/rest/v1/feed?start_date=2005-06-21&end_date=2005-06-21&detailed=true&api_key=t0TVs3DtDT2H8Oy2Zy8m2eVrNsAVKAexjcZXUckd",
    "self" : "https://api.nasa.gov/neo/rest/v1/feed?start_date=2005-06-22&end_date=2005-06-22&detailed=true&api_key=t0TVs3DtDT2H8Oy2Zy8m2eVrNsAVKAexjcZXUckd"
  },
  "element_count" : 4,
  "near_earth_objects" : {
    "2005-06-22" : [ {
      "links" : {
        "self" : "https://api.nasa.gov/neo/rest/v1/neo/3184475?api_key=t0TVs3DtDT2H8Oy2Zy8m2eVrNsAVKAexjcZXUckd"
      },
      "neo_reference_id" : "3184475",
      "name" : "(2004 MD6)",
      "nasa_jpl_url" : "http://ssd.jpl.nasa.gov/sbdb.cgi?sstr=3184475",
      "absolute_magnitude_h" : 20.4,
      "estimated_diameter" : {
        "kilometers" : {
          "estimated_diameter_min" : 0.2210828104,
          "estimated_diameter_max" : 0.4943561926
        },
        "meters" : {
          "estimated_diameter_min" : 221.0828103591,
          "estimated_diameter_max" : 494.3561926196
        },
        "miles" : {
          "estimated_diameter_min" : 0.137374447,
          "estimated_diameter_max" : 0.3071786018
        },
        "feet" : {
          "estimated_diameter_min" : 725.3373275385,
          "estimated_diameter_max" : 1621.9035709942
        }
      },
      "is_potentially_hazardous_asteroid" : true,
      "close_approach_data" : [ {
        "close_approach_date" : "2005-06-22",
        "epoch_date_close_approach" : 1119423600000,
        "relative_velocity" : {
          "kilometers_per_second" : "15.7599650726",
          "kilometers_per_hour" : "56735.874261509",
          "miles_per_hour" : "35253.4658709915"
        },
        "miss_distance" : {
          "astronomical" : "0.4466700716",
          "lunar" : "173.7546691895",
          "kilometers" : "66820896",
          "miles" : "41520580"
        },
        "orbiting_body" : "Earth"
      } ],
      "orbital_data" : {
        "orbit_id" : "32",
        "orbit_determination_date" : "2017-06-29 06:17:04",
        "orbit_uncertainty" : "0",
        "minimum_orbit_intersection" : ".00858821",
        "jupiter_tisserand_invariant" : "6.089",
        "epoch_osculation" : "2458000.5",
        "eccentricity" : ".5628829598767449",
        "semi_major_axis" : ".9507708657627152",
        "inclination" : "29.32607200810186",
        "ascending_node_longitude" : "263.8747632846886",
        "orbital_period" : "338.6197032573829",
        "perihelion_distance" : ".4155981466776228",
        "perihelion_argument" : "231.4283549002812",
        "aphelion_distance" : "1.485943584847808",
        "perihelion_time" : "2457846.915080591616",
        "mean_anomaly" : "163.282202586399",
        "mean_motion" : "1.063139553123895",
        "equinox" : "J2000"
      }
    }, {
      "links" : {
        "self" : "https://api.nasa.gov/neo/rest/v1/neo/3610168?api_key=t0TVs3DtDT2H8Oy2Zy8m2eVrNsAVKAexjcZXUckd"
      },
      "neo_reference_id" : "3610168",
      "name" : "(2012 TQ78)",
      "nasa_jpl_url" : "http://ssd.jpl.nasa.gov/sbdb.cgi?sstr=3610168",
      "absolute_magnitude_h" : 19.4,
      "estimated_diameter" : {
        "kilometers" : {
          "estimated_diameter_min" : 0.3503926411,
          "estimated_diameter_max" : 0.7835017643
        },
        "meters" : {
          "estimated_diameter_min" : 350.3926411083,
          "estimated_diameter_max" : 783.5017643338
        },
        "miles" : {
          "estimated_diameter_min" : 0.2177238258,
          "estimated_diameter_max" : 0.4868452748
        },
        "feet" : {
          "estimated_diameter_min" : 1149.5821926537,
          "estimated_diameter_max" : 2570.543928497
        }
      },
      "is_potentially_hazardous_asteroid" : false,
      "close_approach_data" : [ {
        "close_approach_date" : "2005-06-22",
        "epoch_date_close_approach" : 1119423600000,
        "relative_velocity" : {
          "kilometers_per_second" : "20.5524858328",
          "kilometers_per_hour" : "73988.9489982506",
          "miles_per_hour" : "45973.8555594963"
        },
        "miss_distance" : {
          "astronomical" : "0.3119002373",
          "lunar" : "121.3291854858",
          "kilometers" : "46659612",
          "miles" : "28992938"
        },
        "orbiting_body" : "Earth"
      } ],
      "orbital_data" : {
        "orbit_id" : "51",
        "orbit_determination_date" : "2016-12-30 06:17:03",
        "orbit_uncertainty" : "0",
        "minimum_orbit_intersection" : ".0815523",
        "jupiter_tisserand_invariant" : "5.202",
        "epoch_osculation" : "2457800.5",
        "eccentricity" : ".3836403055277302",
        "semi_major_axis" : "1.201238735810027",
        "inclination" : "11.38343606260802",
        "ascending_node_longitude" : "51.96161513670607",
        "orbital_period" : "480.8863162134615",
        "perihelion_distance" : ".7403951401921237",
        "perihelion_argument" : "118.9651483328052",
        "aphelion_distance" : "1.66208233142793",
        "perihelion_time" : "2457815.424209576043",
        "mean_anomaly" : "348.8274728013047",
        "mean_motion" : ".7486176833532501",
        "equinox" : "J2000"
      }
    }, {
      "links" : {
        "self" : "https://api.nasa.gov/neo/rest/v1/neo/3739247?api_key=t0TVs3DtDT2H8Oy2Zy8m2eVrNsAVKAexjcZXUckd"
      },
      "neo_reference_id" : "3739247",
      "name" : "(2016 AB9)",
      "nasa_jpl_url" : "http://ssd.jpl.nasa.gov/sbdb.cgi?sstr=3739247",
      "absolute_magnitude_h" : 24.7,
      "estimated_diameter" : {
        "kilometers" : {
          "estimated_diameter_min" : 0.0305179233,
          "estimated_diameter_max" : 0.0682401509
        },
        "meters" : {
          "estimated_diameter_min" : 30.5179232594,
          "estimated_diameter_max" : 68.2401509401
        },
        "miles" : {
          "estimated_diameter_min" : 0.0189629525,
          "estimated_diameter_max" : 0.0424024508
        },
        "feet" : {
          "estimated_diameter_min" : 100.1244233463,
          "estimated_diameter_max" : 223.8850168104
        }
      },
      "is_potentially_hazardous_asteroid" : false,
      "close_approach_data" : [ {
        "close_approach_date" : "2005-06-22",
        "epoch_date_close_approach" : 1119423600000,
        "relative_velocity" : {
          "kilometers_per_second" : "3.6598925551",
          "kilometers_per_hour" : "13175.6131984311",
          "miles_per_hour" : "8186.8136565473"
        },
        "miss_distance" : {
          "astronomical" : "0.0564618459",
          "lunar" : "21.9636573792",
          "kilometers" : "8446572",
          "miles" : "5248456.5"
        },
        "orbiting_body" : "Earth"
      } ],
      "orbital_data" : {
        "orbit_id" : "7",
        "orbit_determination_date" : "2017-04-06 08:29:25",
        "orbit_uncertainty" : "5",
        "minimum_orbit_intersection" : ".0177555",
        "jupiter_tisserand_invariant" : "5.765",
        "epoch_osculation" : "2458000.5",
        "eccentricity" : ".08538148304484447",
        "semi_major_axis" : "1.068862395323655",
        "inclination" : "6.831894817009756",
        "ascending_node_longitude" : "83.69906463439081",
        "orbital_period" : "403.6278493579203",
        "perihelion_distance" : ".9776013388400564",
        "perihelion_argument" : "254.2996498472901",
        "aphelion_distance" : "1.160123451807253",
        "perihelion_time" : "2458067.359126372377",
        "mean_anomaly" : "300.3676294082671",
        "mean_motion" : ".8919107057966337",
        "equinox" : "J2000"
      }
    }, {
      "links" : {
        "self" : "https://api.nasa.gov/neo/rest/v1/neo/2482505?api_key=t0TVs3DtDT2H8Oy2Zy8m2eVrNsAVKAexjcZXUckd"
      },
      "neo_reference_id" : "2482505",
      "name" : "482505 (2012 TQ78)",
      "nasa_jpl_url" : "http://ssd.jpl.nasa.gov/sbdb.cgi?sstr=2482505",
      "absolute_magnitude_h" : 19.5,
      "estimated_diameter" : {
        "kilometers" : {
          "estimated_diameter_min" : 0.3346223745,
          "estimated_diameter_max" : 0.7482383761
        },
        "meters" : {
          "estimated_diameter_min" : 334.6223744549,
          "estimated_diameter_max" : 748.2383760735
        },
        "miles" : {
          "estimated_diameter_min" : 0.2079246394,
          "estimated_diameter_max" : 0.464933628
        },
        "feet" : {
          "estimated_diameter_min" : 1097.8424710066,
          "estimated_diameter_max" : 2454.8503937571
        }
      },
      "is_potentially_hazardous_asteroid" : false,
      "close_approach_data" : [ {
        "close_approach_date" : "2005-06-22",
        "epoch_date_close_approach" : 1119423600000,
        "relative_velocity" : {
          "kilometers_per_second" : "20.5524739991",
          "kilometers_per_hour" : "73988.9063967017",
          "miles_per_hour" : "45973.8290885506"
        },
        "miss_distance" : {
          "astronomical" : "0.3118998044",
          "lunar" : "121.3290252686",
          "kilometers" : "46659548",
          "miles" : "28992898"
        },
        "orbiting_body" : "Earth"
      } ],
      "orbital_data" : {
        "orbit_id" : "53",
        "orbit_determination_date" : "2017-04-06 09:18:42",
        "orbit_uncertainty" : "0",
        "minimum_orbit_intersection" : ".0813595",
        "jupiter_tisserand_invariant" : "5.202",
        "epoch_osculation" : "2458000.5",
        "eccentricity" : ".3835339672019835",
        "semi_major_axis" : "1.201045033404668",
        "inclination" : "11.38372797667708",
        "ascending_node_longitude" : "51.95708122997833",
        "orbital_period" : "480.7700049280822",
        "perihelion_distance" : ".740403466954737",
        "perihelion_argument" : "118.9584092065211",
        "aphelion_distance" : "1.6616865998546",
        "perihelion_time" : "2457815.411380853850",
        "mean_anomaly" : "138.5941348453744",
        "mean_motion" : ".7487987942464337",
        "equinox" : "J2000"
      }
    } ]
  }
}